[{"OBJECT_NAME":"HAIYANG-1B","OBJECT_ID":"2007-010A","EPOCH":"2026-03-09T22:15:19.251360","MEAN_MOTION":14.3099952,"ECCENTRICITY":0.00143047,"INCLINATION":98.343,"RA_OF_ASC_NODE":54.6595,"ARG_OF_PERICENTER":132.0498,"MEAN_ANOMALY":228.1905,"EPHEMERIS_TYPE":0,"CLASSIFICATION_TYPE":"U","NORAD_CAT_ID":31113,"ELEMENT_SET_NO":999,"REV_AT_EPOCH":98643,"BSTAR":7.2604842e-5,"MEAN_MOTION_DOT":1.5e-6,"MEAN_MOTION_DDOT":0},{"OBJECT_NAME":"CZ-6A DEB","OBJECT_ID":"2024-140QE","EPOCH":"2026-03-09T01:29:15.319104","MEAN_MOTION":14.2361245,"ECCENTRICITY":0.00873107,"INCLINATION":89.1144,"RA_OF_ASC_NODE":293.6904,"ARG_OF_PERICENTER":200.5173,"MEAN_ANOMALY":159.2506,"EPHEMERIS_TYPE":0,"CLASSIFICATION_TYPE":"U","NORAD_CAT_ID":61136,"ELEMENT_SET_NO":999,"REV_AT_EPOCH":8006,"BSTAR":0.0014618825,"MEAN_MOTION_DOT":3.477e-5,"MEAN_MOTION_DDOT":0}]
